KAITUO 1B               
1 40912U 15049P   17300.53917063  .00002435  00000-0  12234-3 0  9999
2 40912  97.4523 306.2704 0017359 100.1282  25.2697 15.18093889116369
TIANWANG 1C (TW-1C)     
1 40926U 15051B   17300.50180650  .00013449  00000-0  28478-3 0  9992
2 40926  97.2155 339.1206 0012643  55.7758  53.9737 15.45141441117338
TIANWANG 1B (TW-1B)     
1 40927U 15051C   17300.53742667  .00012950  00000-0  28514-3 0  9995
2 40927  97.2247 339.1116 0012736  63.9579  40.0925 15.43994241117277
TIANWANG 1A (TW-1A)     
1 40928U 15051D   17300.48426234  .00006091  00000-0  16874-3 0  9994
2 40928  97.2153 333.9111 0014300  83.0034  26.7373 15.37226520117010
LAPAN-A2 (IO-86)        
1 40931U 15052B   17299.68978652  .00000799  00000-0  22190-4 0  9992
2 40931   6.0020  15.0636 0013887 306.4257  53.4626 14.76551342112437
LQSAT                   
1 40958U 15057A   17300.50888027  .00000081  00000-0  20321-4 0  9994
2 40958  97.9672  13.4396 0018605   7.0726 353.0742 14.72995728110590
CHUBUSAT-2              
1 41338U 16012B   17300.19602896  .00000758  00000-0  52855-4 0  9990
2 41338  31.0046 353.8075 0013953 286.4460  73.4641 14.99848655 92822
CHUBUSAT-3              
1 41339U 16012C   17300.43917829  .00000615  00000-0  41351-4 0  9994
2 41339  31.0111 351.2005 0013872 294.8025  65.1185 15.00045629 92847
OUFTI-1                 
1 41458U 16025C   17300.42335137  .00002878  00000-0  15559-3 0  9998
2 41458  98.1664 345.5310 0172060 207.2184 151.9988 15.03789498 82442
E-ST@R-II               
1 41459U 16025D   17300.39327775  .00003187  00000-0  17215-3 0  9999
2 41459  98.1723 345.4226 0172951 207.5362 151.6649 15.03607810 82431
AAUSAT 4                
1 41460U 16025E   17300.43756344  .00003353  00000-0  18054-3 0  9991
2 41460  98.1633 345.6666 0164568 204.9354 154.3880 15.04705115 82479
NUSAT 1 (LO-87)         
1 41557U 16033B   17300.29516226  .00003404  00000-0  12873-3 0  9994
2 41557  97.4545  19.7896 0012475 259.4726 100.5107 15.27598905 78596
BEESAT-4                
1 41619U 16040W   17299.70289685  .00003657  00000-0  16625-3 0  9999
2 41619  97.4476   0.7539 0011027 335.5660  24.5052 15.21331253 62588
PRATHAM                 
1 41783U 16059A   17300.17351761  .00000152  00000-0  38927-4 0  9997
2 41783  98.1519   0.0766 0034901 106.5493 253.9547 14.62872587 57896
ALSAT 1N                
1 41789U 16059G   17300.46264214  .00000145  00000-0  36657-4 0  9991
2 41789  98.1532   1.1217 0029890  98.8898 261.5690 14.64092056 57962
NAYIF-1 (EO-88)         
1 42017U 17008BX  17299.68703413  .00003896  00000-0  16571-3 0  9999
2 42017  97.4803   0.8248 0008096 115.4427 244.7648 15.23592889 38509
LILACSAT-1              
1 42725U 98067ME  17300.51407443  .00025964  00000-0  32546-3 0  9998
2 42725  51.6381  95.8742 0005275  87.0965 273.0631 15.59561464 24098
MAX VALIER SAT          
1 42778U 17036P   17299.70510590  .00002816  00000-0  13085-3 0  9997
2 42778  97.4367 357.9191 0013489 160.5876 199.5875 15.20737287 19016
